{"type":"FeatureCollection","crs":{"Name":"urn:ogc:def:crs:EPSG::3857","type":"name","properties":{"name":"urn:ogc:def:crs:EPSG::3857"}},"name":"landmarks","features":[{"type":"Feature","properties":{"type":"Misc","label":"Locke's \nHome","z":124},"geometry":{"type":"Point","coordinates":[1059,-1008]}},{"type":"Feature","properties":{"type":"Misc","label":"The Warehouse","z":121},"geometry":{"type":"Point","coordinates":[1129,-1013]}},{"type":"Feature","properties":{"type":"Base","label":"SealDrift Port","z":126},"geometry":{"type":"Point","coordinates":[1064,-1058]}},{"type":"Feature","properties":{"type":"Misc","label":"Tenshi's Home\nand Potionshop","z":119},"geometry":{"type":"Point","coordinates":[1115,-1056]}}]}