{"type":"FeatureCollection","crs":{"Name":"urn:ogc:def:crs:EPSG::3857","type":"name","properties":{"name":"urn:ogc:def:crs:EPSG::3857"}},"name":"traders","features":[{"type":"Feature","properties":{"name":"Miguel","wares":"Building materials trader","z":112},"geometry":{"type":"Point","coordinates":[-6126,13188]}},{"type":"Feature","properties":{"name":"Tybal","wares":"Survival goods trader","z":120},"geometry":{"type":"Point","coordinates":[-6532,12592]}},{"type":"Feature","properties":{"name":"Vlad","wares":"Furniture trader","z":116},"geometry":{"type":"Point","coordinates":[-5145,12574]}},{"type":"Feature","properties":{"name":"Veera","wares":"Luxuries trader","z":114},"geometry":{"type":"Point","coordinates":[-7139,12503]}},{"type":"Feature","properties":{"name":"Bounder","wares":"Agriculture trader","z":114},"geometry":{"type":"Point","coordinates":[-4612,11960]}},{"type":"Feature","properties":{"name":"Karl","wares":"Survival goods trader","z":114},"geometry":{"type":"Point","coordinates":[-5782,12146]}},{"type":"Feature","properties":{"name":"Floyd","wares":"Artisan trader","z":150},"geometry":{"type":"Point","coordinates":[-7558,11597]}},{"type":"Feature","properties":{"name":"Hector","wares":"Agriculture trader","z":111},"geometry":{"type":"Point","coordinates":[-3768,11422]}},{"type":"Feature","properties":{"name":"Oliver","wares":"Clothing trader","z":111},"geometry":{"type":"Point","coordinates":[-8542,10745]}},{"type":"Feature","properties":{"name":"En Repos","wares":"Artisan trader","z":118},"geometry":{"type":"Point","coordinates":[-7376,10789]}},{"type":"Feature","properties":{"name":"Adachi","wares":"Artisan trader","z":117},"geometry":{"type":"Point","coordinates":[-4941,11243]}},{"type":"Feature","properties":{"name":"Hubert","wares":"Survival goods trader","z":117},"geometry":{"type":"Point","coordinates":[-5039,11030]}},{"type":"Feature","properties":{"name":"Ra Bal","wares":"Furniture trader","z":110},"geometry":{"type":"Point","coordinates":[-3643,10796]}},{"type":"Feature","properties":{"name":"Ruslan","wares":"Commodities trader","z":112},"geometry":{"type":"Point","coordinates":[-7259,10663]}},{"type":"Feature","properties":{"name":"Loon","wares":"Survival goods trader","z":113},"geometry":{"type":"Point","coordinates":[-3117,10509]}},{"type":"Feature","properties":{"name":"Tinker","wares":"Building materials trader","z":164},"geometry":{"type":"Point","coordinates":[-2458,10294]}},{"type":"Feature","properties":{"name":"Timaf","wares":"Treasure hunter trader","z":165},"geometry":{"type":"Point","coordinates":[-2433,10273]}},{"type":"Feature","properties":{"name":"Erik","wares":"Artisan trader","z":163},"geometry":{"type":"Point","coordinates":[-2437,10273]}},{"type":"Feature","properties":{"name":"Tinker","wares":"Building materials trader","z":164},"geometry":{"type":"Point","coordinates":[-2458,10294]}},{"type":"Feature","properties":{"name":"Timaf","wares":"Treasure hunter trader","z":165},"geometry":{"type":"Point","coordinates":[-2433,10273]}},{"type":"Feature","properties":{"name":"Erik","wares":"Artisan trader","z":163},"geometry":{"type":"Point","coordinates":[-2437,10273]}},{"type":"Feature","properties":{"name":"Tinker","wares":"Building materials trader","z":164},"geometry":{"type":"Point","coordinates":[-2458,10294]}},{"type":"Feature","properties":{"name":"Timaf","wares":"Treasure hunter trader","z":165},"geometry":{"type":"Point","coordinates":[-2433,10273]}},{"type":"Feature","properties":{"name":"Erik","wares":"Artisan trader","z":163},"geometry":{"type":"Point","coordinates":[-2437,10273]}},{"type":"Feature","properties":{"name":"Ra Bal","wares":"Furniture trader","z":165},"geometry":{"type":"Point","coordinates":[-2431,10273]}},{"type":"Feature","properties":{"name":"Mostafa","wares":"Clothing trader","z":118},"geometry":{"type":"Point","coordinates":[-6356,10036]}},{"type":"Feature","properties":{"name":"Kino","wares":"Clothing trader","z":111},"geometry":{"type":"Point","coordinates":[-3157,9785]}},{"type":"Feature","properties":{"name":"Karl","wares":"Survival goods trader","z":111},"geometry":{"type":"Point","coordinates":[-7115,9589]}},{"type":"Feature","properties":{"name":"Yan","wares":"Commodities trader","z":137},"geometry":{"type":"Point","coordinates":[-6000,9231]}},{"type":"Feature","properties":{"name":"Ahanu","wares":"Clothing trader","z":136},"geometry":{"type":"Point","coordinates":[-6009,9230]}},{"type":"Feature","properties":{"name":"Tybal","wares":"Survival goods trader","z":134},"geometry":{"type":"Point","coordinates":[-6014,9246]}},{"type":"Feature","properties":{"name":"Yan","wares":"Commodities trader","z":137},"geometry":{"type":"Point","coordinates":[-6000,9231]}},{"type":"Feature","properties":{"name":"Ahanu","wares":"Clothing trader","z":136},"geometry":{"type":"Point","coordinates":[-6009,9230]}},{"type":"Feature","properties":{"name":"Tybal","wares":"Survival goods trader","z":134},"geometry":{"type":"Point","coordinates":[-6014,9246]}},{"type":"Feature","properties":{"name":"Yan","wares":"Commodities trader","z":137},"geometry":{"type":"Point","coordinates":[-6000,9231]}},{"type":"Feature","properties":{"name":"Ahanu","wares":"Clothing trader","z":136},"geometry":{"type":"Point","coordinates":[-6009,9230]}},{"type":"Feature","properties":{"name":"Tybal","wares":"Survival goods trader","z":134},"geometry":{"type":"Point","coordinates":[-6014,9246]}},{"type":"Feature","properties":{"name":"Yan","wares":"Commodities trader","z":137},"geometry":{"type":"Point","coordinates":[-6000,9231]}},{"type":"Feature","properties":{"name":"Ahanu","wares":"Clothing trader","z":136},"geometry":{"type":"Point","coordinates":[-6009,9230]}},{"type":"Feature","properties":{"name":"Tybal","wares":"Survival goods trader","z":134},"geometry":{"type":"Point","coordinates":[-6014,9246]}},{"type":"Feature","properties":{"name":"Hans","wares":"Agriculture trader","z":116},"geometry":{"type":"Point","coordinates":[-3647,8899]}},{"type":"Feature","properties":{"name":"Aram","wares":"Commodities trader","z":112},"geometry":{"type":"Point","coordinates":[-3046,8971]}},{"type":"Feature","properties":{"name":"Grit","wares":"Agriculture trader","z":111},"geometry":{"type":"Point","coordinates":[-6482,8501]}},{"type":"Feature","properties":{"name":"Karl","wares":"Survival goods trader","z":114},"geometry":{"type":"Point","coordinates":[-5522,8661]}},{"type":"Feature","properties":{"name":"Lin","wares":"Furniture trader","z":113},"geometry":{"type":"Point","coordinates":[-2978,8336]}},{"type":"Feature","properties":{"name":"Whel","wares":"Building materials trader","z":114},"geometry":{"type":"Point","coordinates":[-4789,8199]}},{"type":"Feature","properties":{"name":"Sprig","wares":"Survival goods trader","z":114},"geometry":{"type":"Point","coordinates":[-7169,7861]}},{"type":"Feature","properties":{"name":"Ruslan","wares":"Commodities trader","z":113},"geometry":{"type":"Point","coordinates":[-6311,7705]}},{"type":"Feature","properties":{"name":"Sprig","wares":"Survival goods trader","z":112},"geometry":{"type":"Point","coordinates":[-3967,8002]}},{"type":"Feature","properties":{"name":"Axe","wares":"Survival goods trader","z":111},"geometry":{"type":"Point","coordinates":[-3255,7797]}},{"type":"Feature","properties":{"name":"Leo","wares":"Commodities trader","z":112},"geometry":{"type":"Point","coordinates":[-3779,7442]}},{"type":"Feature","properties":{"name":"En Repos","wares":"Artisan trader","z":113},"geometry":{"type":"Point","coordinates":[-6940,7292]}},{"type":"Feature","properties":{"name":"En Repos","wares":"Artisan trader","z":113},"geometry":{"type":"Point","coordinates":[-6940,7292]}},{"type":"Feature","properties":{"name":"En Repos","wares":"Artisan trader","z":113},"geometry":{"type":"Point","coordinates":[-6940,7292]}},{"type":"Feature","properties":{"name":"Edel","wares":"Treasure hunter trader","z":118},"geometry":{"type":"Point","coordinates":[-6907,7292]}},{"type":"Feature","properties":{"name":"Loon","wares":"Survival goods trader","z":111},"geometry":{"type":"Point","coordinates":[-4556,7343]}},{"type":"Feature","properties":{"name":"Pegalesharro","wares":"Artisan trader","z":112},"geometry":{"type":"Point","coordinates":[-7311,6741]}},{"type":"Feature","properties":{"name":"Hans","wares":"Agriculture trader","z":116},"geometry":{"type":"Point","coordinates":[-5328,7064]}},{"type":"Feature","properties":{"name":"Hubert","wares":"Survival goods trader","z":113},"geometry":{"type":"Point","coordinates":[-4680,6666]}},{"type":"Feature","properties":{"name":"Miguel","wares":"Building materials trader","z":113},"geometry":{"type":"Point","coordinates":[-4105,6908]}},{"type":"Feature","properties":{"name":"Lin","wares":"Furniture trader","z":115},"geometry":{"type":"Point","coordinates":[-3351,6679]}},{"type":"Feature","properties":{"name":"Roi","wares":"Treasure hunter trader","z":110},"geometry":{"type":"Point","coordinates":[-7835,6280]}},{"type":"Feature","properties":{"name":"Old Eyes","wares":"Building materials trader","z":112},"geometry":{"type":"Point","coordinates":[-6625,6173]}},{"type":"Feature","properties":{"name":"Pegalesharro","wares":"Artisan trader","z":122},"geometry":{"type":"Point","coordinates":[-4130,6193]}},{"type":"Feature","properties":{"name":"Hubert","wares":"Survival goods trader","z":113},"geometry":{"type":"Point","coordinates":[-5702,5816]}},{"type":"Feature","properties":{"name":"Hubert","wares":"Survival goods trader","z":125},"geometry":{"type":"Point","coordinates":[-4935,6009]}},{"type":"Feature","properties":{"name":"Lin","wares":"Furniture trader","z":132},"geometry":{"type":"Point","coordinates":[-4639,5358]}},{"type":"Feature","properties":{"name":"Zadak","wares":"Artisan trader","z":129},"geometry":{"type":"Point","coordinates":[-4641,5381]}},{"type":"Feature","properties":{"name":"Lin","wares":"Furniture trader","z":132},"geometry":{"type":"Point","coordinates":[-4639,5358]}},{"type":"Feature","properties":{"name":"Lin","wares":"Furniture trader","z":132},"geometry":{"type":"Point","coordinates":[-4639,5358]}},{"type":"Feature","properties":{"name":"Axe","wares":"Survival goods trader","z":111},"geometry":{"type":"Point","coordinates":[-3888,5411]}},{"type":"Feature","properties":{"name":"Grit","wares":"Agriculture trader","z":145},"geometry":{"type":"Point","coordinates":[-6110,4998]}},{"type":"Feature","properties":{"name":"Wilding","wares":"Survival goods trader","z":117},"geometry":{"type":"Point","coordinates":[-5475,4822]}},{"type":"Feature","properties":{"name":"Grit","wares":"Agriculture trader","z":114},"geometry":{"type":"Point","coordinates":[-3252,4873]}},{"type":"Feature","properties":{"name":"McCrae","wares":"Agriculture trader","z":119},"geometry":{"type":"Point","coordinates":[13760,4981]}},{"type":"Feature","properties":{"name":"Bounder","wares":"Agriculture trader","z":111},"geometry":{"type":"Point","coordinates":[-5989,4252]}},{"type":"Feature","properties":{"name":"Miguel","wares":"Building materials trader","z":112},"geometry":{"type":"Point","coordinates":[-4727,4425]}},{"type":"Feature","properties":{"name":"Gild","wares":"Agriculture trader","z":110},"geometry":{"type":"Point","coordinates":[-3335,4257]}},{"type":"Feature","properties":{"name":"Jasper","wares":"Commodities trader","z":114},"geometry":{"type":"Point","coordinates":[-1500,4359]}},{"type":"Feature","properties":{"name":"Jasper","wares":"Commodities trader","z":118},"geometry":{"type":"Point","coordinates":[9324,4295]}},{"type":"Feature","properties":{"name":"Sprig","wares":"Survival goods trader","z":121},"geometry":{"type":"Point","coordinates":[9342,4308]}},{"type":"Feature","properties":{"name":"Old Eyes","wares":"Building materials trader","z":121},"geometry":{"type":"Point","coordinates":[9342,4308]}},{"type":"Feature","properties":{"name":"Jasper","wares":"Commodities trader","z":118},"geometry":{"type":"Point","coordinates":[9324,4295]}},{"type":"Feature","properties":{"name":"Sprig","wares":"Survival goods trader","z":121},"geometry":{"type":"Point","coordinates":[9342,4308]}},{"type":"Feature","properties":{"name":"Old Eyes","wares":"Building materials trader","z":121},"geometry":{"type":"Point","coordinates":[9342,4308]}},{"type":"Feature","properties":{"name":"Jasper","wares":"Commodities trader","z":118},"geometry":{"type":"Point","coordinates":[9324,4295]}},{"type":"Feature","properties":{"name":"Sprig","wares":"Survival goods trader","z":121},"geometry":{"type":"Point","coordinates":[9342,4308]}},{"type":"Feature","properties":{"name":"Old Eyes","wares":"Building materials trader","z":121},"geometry":{"type":"Point","coordinates":[9342,4308]}},{"type":"Feature","properties":{"name":"Hosa","wares":"Furniture trader","z":120},"geometry":{"type":"Point","coordinates":[9346,4308]}},{"type":"Feature","properties":{"name":"Leo","wares":"Commodities trader","z":138},"geometry":{"type":"Point","coordinates":[10216,4345]}},{"type":"Feature","properties":{"name":"McCrae","wares":"Agriculture trader","z":112},"geometry":{"type":"Point","coordinates":[10808,4507]}},{"type":"Feature","properties":{"name":"Mostafa","wares":"Clothing trader","z":110},"geometry":{"type":"Point","coordinates":[-5479,3641]}},{"type":"Feature","properties":{"name":"Kino","wares":"Clothing trader","z":117},"geometry":{"type":"Point","coordinates":[-4720,3757]}},{"type":"Feature","properties":{"name":"Grit","wares":"Agriculture trader","z":111},"geometry":{"type":"Point","coordinates":[14048,4362]}},{"type":"Feature","properties":{"name":"Karl","wares":"Survival goods trader","z":118},"geometry":{"type":"Point","coordinates":[-4166,4052]}},{"type":"Feature","properties":{"name":"Axe","wares":"Survival goods trader","z":117},"geometry":{"type":"Point","coordinates":[-1816,3667]}},{"type":"Feature","properties":{"name":"Alfonse","wares":"Luxuries trader","z":114},"geometry":{"type":"Point","coordinates":[8384,3736]}},{"type":"Feature","properties":{"name":"Erik","wares":"Artisan trader","z":110},"geometry":{"type":"Point","coordinates":[11164,3817]}},{"type":"Feature","properties":{"name":"Roi","wares":"Treasure hunter trader","z":114},"geometry":{"type":"Point","coordinates":[13589,3831]}},{"type":"Feature","properties":{"name":"Two Tongue","wares":"Luxuries trader","z":112},"geometry":{"type":"Point","coordinates":[-1154,3380]}},{"type":"Feature","properties":{"name":"Rigby","wares":"Luxuries trader","z":110},"geometry":{"type":"Point","coordinates":[-1119,3379]}},{"type":"Feature","properties":{"name":"Veera","wares":"Luxuries trader","z":111},"geometry":{"type":"Point","coordinates":[-1139,3359]}},{"type":"Feature","properties":{"name":"Karl","wares":"Survival goods trader","z":114},"geometry":{"type":"Point","coordinates":[-3680,3575]}},{"type":"Feature","properties":{"name":"Shift","wares":"Treasure hunter trader","z":111},"geometry":{"type":"Point","coordinates":[568,3388]}},{"type":"Feature","properties":{"name":"Karl","wares":"Survival goods trader","z":113},"geometry":{"type":"Point","coordinates":[580,3381]}},{"type":"Feature","properties":{"name":"Shift","wares":"Treasure hunter trader","z":111},"geometry":{"type":"Point","coordinates":[568,3388]}},{"type":"Feature","properties":{"name":"Shift","wares":"Treasure hunter trader","z":111},"geometry":{"type":"Point","coordinates":[568,3388]}},{"type":"Feature","properties":{"name":"Karl","wares":"Survival goods trader","z":113},"geometry":{"type":"Point","coordinates":[580,3381]}},{"type":"Feature","properties":{"name":"Whel","wares":"Building materials trader","z":112},"geometry":{"type":"Point","coordinates":[6338,3282]}},{"type":"Feature","properties":{"name":"Timaf","wares":"Treasure hunter trader","z":112},"geometry":{"type":"Point","coordinates":[5687,3220]}},{"type":"Feature","properties":{"name":"Shift","wares":"Treasure hunter trader","z":111},"geometry":{"type":"Point","coordinates":[7219,3138]}},{"type":"Feature","properties":{"name":"Ruslan","wares":"Commodities trader","z":111},"geometry":{"type":"Point","coordinates":[7928,3272]}},{"type":"Feature","properties":{"name":"Aram","wares":"Commodities trader","z":113},"geometry":{"type":"Point","coordinates":[10741,3339]}},{"type":"Feature","properties":{"name":"Sprig","wares":"Survival goods trader","z":114},"geometry":{"type":"Point","coordinates":[13162,3398]}},{"type":"Feature","properties":{"name":"Jasper","wares":"Commodities trader","z":112},"geometry":{"type":"Point","coordinates":[13884,3132]}},{"type":"Feature","properties":{"name":"Jasper","wares":"Commodities trader","z":112},"geometry":{"type":"Point","coordinates":[13884,3132]}},{"type":"Feature","properties":{"name":"Wallace","wares":"Clothing trader","z":113},"geometry":{"type":"Point","coordinates":[13856,3141]}},{"type":"Feature","properties":{"name":"Jasper","wares":"Commodities trader","z":112},"geometry":{"type":"Point","coordinates":[13884,3132]}},{"type":"Feature","properties":{"name":"Hubert","wares":"Survival goods trader","z":110},"geometry":{"type":"Point","coordinates":[14333,3540]}},{"type":"Feature","properties":{"name":"Loon","wares":"Survival goods trader","z":114},"geometry":{"type":"Point","coordinates":[-2704,2787]}},{"type":"Feature","properties":{"name":"Robert","wares":"Furniture trader","z":138},"geometry":{"type":"Point","coordinates":[-1978,2661]}},{"type":"Feature","properties":{"name":"Wilding","wares":"Survival goods trader","z":136},"geometry":{"type":"Point","coordinates":[-1963,2680]}},{"type":"Feature","properties":{"name":"Robert","wares":"Furniture trader","z":138},"geometry":{"type":"Point","coordinates":[-1978,2661]}},{"type":"Feature","properties":{"name":"Wilding","wares":"Survival goods trader","z":136},"geometry":{"type":"Point","coordinates":[-1963,2680]}},{"type":"Feature","properties":{"name":"Robert","wares":"Furniture trader","z":138},"geometry":{"type":"Point","coordinates":[-1978,2661]}},{"type":"Feature","properties":{"name":"Wilding","wares":"Survival goods trader","z":136},"geometry":{"type":"Point","coordinates":[-1963,2680]}},{"type":"Feature","properties":{"name":"Sprig","wares":"Survival goods trader","z":111},"geometry":{"type":"Point","coordinates":[-461,2931]}},{"type":"Feature","properties":{"name":"Aram","wares":"Commodities trader","z":112},"geometry":{"type":"Point","coordinates":[16105,2567]}},{"type":"Feature","properties":{"name":"Old Eyes","wares":"Building materials trader","z":111},"geometry":{"type":"Point","coordinates":[-3904,2456]}},{"type":"Feature","properties":{"name":"Loon","wares":"Survival goods trader","z":118},"geometry":{"type":"Point","coordinates":[-2967,2044]}},{"type":"Feature","properties":{"name":"Sprig","wares":"Survival goods trader","z":111},"geometry":{"type":"Point","coordinates":[-1268,2523]}},{"type":"Feature","properties":{"name":"Two Tongue","wares":"Luxuries trader","z":112},"geometry":{"type":"Point","coordinates":[168,2226]}},{"type":"Feature","properties":{"name":"Roi","wares":"Treasure hunter trader","z":115},"geometry":{"type":"Point","coordinates":[6525,2440]}},{"type":"Feature","properties":{"name":"Axe","wares":"Survival goods trader","z":111},"geometry":{"type":"Point","coordinates":[11263,2266]}},{"type":"Feature","properties":{"name":"Samoset","wares":"Commodities trader","z":111},"geometry":{"type":"Point","coordinates":[13214,2339]}},{"type":"Feature","properties":{"name":"Farhad","wares":"Artisan trader","z":112},"geometry":{"type":"Point","coordinates":[14272,2412]}},{"type":"Feature","properties":{"name":"Hubert","wares":"Survival goods trader","z":110},"geometry":{"type":"Point","coordinates":[-3885,1741]}},{"type":"Feature","properties":{"name":"Wilding","wares":"Survival goods trader","z":110},"geometry":{"type":"Point","coordinates":[15666,2158]}},{"type":"Feature","properties":{"name":"Hector","wares":"Agriculture trader","z":111},"geometry":{"type":"Point","coordinates":[-2298,2033]}},{"type":"Feature","properties":{"name":"Adachi","wares":"Artisan trader","z":115},"geometry":{"type":"Point","coordinates":[-1609,1602]}},{"type":"Feature","properties":{"name":"Zadak","wares":"Artisan trader","z":110},"geometry":{"type":"Point","coordinates":[-1032,1950]}},{"type":"Feature","properties":{"name":"Tinker","wares":"Building materials trader","z":127},"geometry":{"type":"Point","coordinates":[136,1580]}},{"type":"Feature","properties":{"name":"Veera","wares":"Luxuries trader","z":112},"geometry":{"type":"Point","coordinates":[6734,1874]}},{"type":"Feature","properties":{"name":"Hosa","wares":"Furniture trader","z":118},"geometry":{"type":"Point","coordinates":[7458,1833]}},{"type":"Feature","properties":{"name":"Tybal","wares":"Survival goods trader","z":113},"geometry":{"type":"Point","coordinates":[8129,1963]}},{"type":"Feature","properties":{"name":"Yern","wares":"Agriculture trader","z":113},"geometry":{"type":"Point","coordinates":[9072,1622]}},{"type":"Feature","properties":{"name":"Innis","wares":"Treasure hunter trader","z":117},"geometry":{"type":"Point","coordinates":[12811,1677]}},{"type":"Feature","properties":{"name":"Stretch","wares":"Commodities trader","z":111},"geometry":{"type":"Point","coordinates":[15080,1751]}},{"type":"Feature","properties":{"name":"Stefan","wares":"Commodities trader","z":112},"geometry":{"type":"Point","coordinates":[16310,1931]}},{"type":"Feature","properties":{"name":"Hosa","wares":"Furniture trader","z":116},"geometry":{"type":"Point","coordinates":[-6000,1039]}},{"type":"Feature","properties":{"name":"Samoset","wares":"Commodities trader","z":118},"geometry":{"type":"Point","coordinates":[-5596,1494]}},{"type":"Feature","properties":{"name":"Adachi","wares":"Artisan trader","z":116},"geometry":{"type":"Point","coordinates":[-3218,1377]}},{"type":"Feature","properties":{"name":"Bedwyr","wares":"Clothing trader","z":119},"geometry":{"type":"Point","coordinates":[-1970,1051]}},{"type":"Feature","properties":{"name":"Hans","wares":"Agriculture trader","z":116},"geometry":{"type":"Point","coordinates":[1108,1273]}},{"type":"Feature","properties":{"name":"Grit","wares":"Agriculture trader","z":117},"geometry":{"type":"Point","coordinates":[11512,1438]}},{"type":"Feature","properties":{"name":"Ra Bal","wares":"Furniture trader","z":112},"geometry":{"type":"Point","coordinates":[7109,1305]}},{"type":"Feature","properties":{"name":"Hubert","wares":"Survival goods trader","z":113},"geometry":{"type":"Point","coordinates":[7856,1182]}},{"type":"Feature","properties":{"name":"Yan","wares":"Commodities trader","z":112},"geometry":{"type":"Point","coordinates":[8429,1447]}},{"type":"Feature","properties":{"name":"Shem","wares":"Survival goods trader","z":126},"geometry":{"type":"Point","coordinates":[16355,1115]}},{"type":"Feature","properties":{"name":"Innis","wares":"Treasure hunter trader","z":111},"geometry":{"type":"Point","coordinates":[17277,1488]}},{"type":"Feature","properties":{"name":"Robert","wares":"Furniture trader","z":111},"geometry":{"type":"Point","coordinates":[17274,1487]}},{"type":"Feature","properties":{"name":"Rigby","wares":"Luxuries trader","z":111},"geometry":{"type":"Point","coordinates":[17274,1487]}},{"type":"Feature","properties":{"name":"Grit","wares":"Agriculture trader","z":112},"geometry":{"type":"Point","coordinates":[-5433,813]}},{"type":"Feature","properties":{"name":"Temper","wares":"Artisan trader","z":113},"geometry":{"type":"Point","coordinates":[-3667,935]}},{"type":"Feature","properties":{"name":"Axe","wares":"Survival goods trader","z":111},"geometry":{"type":"Point","coordinates":[-590,978]}},{"type":"Feature","properties":{"name":"Rigby","wares":"Luxuries trader","z":112},"geometry":{"type":"Point","coordinates":[55,738]}},{"type":"Feature","properties":{"name":"Marco","wares":"Luxuries trader","z":112},"geometry":{"type":"Point","coordinates":[716,760]}},{"type":"Feature","properties":{"name":"Tybal","wares":"Survival goods trader","z":113},"geometry":{"type":"Point","coordinates":[8633,833]}},{"type":"Feature","properties":{"name":"Alfonse","wares":"Luxuries trader","z":113},"geometry":{"type":"Point","coordinates":[12485,750]}},{"type":"Feature","properties":{"name":"Hector","wares":"Agriculture trader","z":112},"geometry":{"type":"Point","coordinates":[-6104,447]}},{"type":"Feature","properties":{"name":"Filipe","wares":"Furniture trader","z":115},"geometry":{"type":"Point","coordinates":[-5550,169]}},{"type":"Feature","properties":{"name":"Optal","wares":"Luxuries trader","z":113},"geometry":{"type":"Point","coordinates":[-4628,313]}},{"type":"Feature","properties":{"name":"Innis","wares":"Treasure hunter trader","z":119},"geometry":{"type":"Point","coordinates":[-3642,337]}},{"type":"Feature","properties":{"name":"Filipe","wares":"Furniture trader","z":111},"geometry":{"type":"Point","coordinates":[-2390,45]}},{"type":"Feature","properties":{"name":"Roi","wares":"Treasure hunter trader","z":121},"geometry":{"type":"Point","coordinates":[-1619,307]}},{"type":"Feature","properties":{"name":"Roi","wares":"Treasure hunter trader","z":121},"geometry":{"type":"Point","coordinates":[-1619,307]}},{"type":"Feature","properties":{"name":"Roi","wares":"Treasure hunter trader","z":121},"geometry":{"type":"Point","coordinates":[-1619,307]}},{"type":"Feature","properties":{"name":"Yern","wares":"Agriculture trader","z":122},"geometry":{"type":"Point","coordinates":[-1631,286]}},{"type":"Feature","properties":{"name":"Roi","wares":"Treasure hunter trader","z":111},"geometry":{"type":"Point","coordinates":[-760,404]}},{"type":"Feature","properties":{"name":"Sprig","wares":"Survival goods trader","z":110},"geometry":{"type":"Point","coordinates":[1134,67]}},{"type":"Feature","properties":{"name":"Lin","wares":"Furniture trader","z":117},"geometry":{"type":"Point","coordinates":[1735,259]}},{"type":"Feature","properties":{"name":"Innis","wares":"Treasure hunter trader","z":117},"geometry":{"type":"Point","coordinates":[1750,261]}},{"type":"Feature","properties":{"name":"Yoskolo","wares":"Agriculture trader","z":113},"geometry":{"type":"Point","coordinates":[1743,285]}},{"type":"Feature","properties":{"name":"Lin","wares":"Furniture trader","z":117},"geometry":{"type":"Point","coordinates":[1735,259]}},{"type":"Feature","properties":{"name":"Innis","wares":"Treasure hunter trader","z":117},"geometry":{"type":"Point","coordinates":[1750,261]}},{"type":"Feature","properties":{"name":"Yoskolo","wares":"Agriculture trader","z":113},"geometry":{"type":"Point","coordinates":[1743,285]}},{"type":"Feature","properties":{"name":"Lin","wares":"Furniture trader","z":117},"geometry":{"type":"Point","coordinates":[1735,259]}},{"type":"Feature","properties":{"name":"Innis","wares":"Treasure hunter trader","z":117},"geometry":{"type":"Point","coordinates":[1750,261]}},{"type":"Feature","properties":{"name":"Yoskolo","wares":"Agriculture trader","z":113},"geometry":{"type":"Point","coordinates":[1743,285]}},{"type":"Feature","properties":{"name":"Lin","wares":"Furniture trader","z":117},"geometry":{"type":"Point","coordinates":[1735,259]}},{"type":"Feature","properties":{"name":"Innis","wares":"Treasure hunter trader","z":117},"geometry":{"type":"Point","coordinates":[1750,261]}},{"type":"Feature","properties":{"name":"Yoskolo","wares":"Agriculture trader","z":113},"geometry":{"type":"Point","coordinates":[1743,285]}},{"type":"Feature","properties":{"name":"Ephram","wares":"Treasure hunter trader","z":119},"geometry":{"type":"Point","coordinates":[13035,320]}},{"type":"Feature","properties":{"name":"Adachi","wares":"Artisan trader","z":118},"geometry":{"type":"Point","coordinates":[13055,315]}},{"type":"Feature","properties":{"name":"Ephram","wares":"Treasure hunter trader","z":119},"geometry":{"type":"Point","coordinates":[13035,320]}},{"type":"Feature","properties":{"name":"Adachi","wares":"Artisan trader","z":118},"geometry":{"type":"Point","coordinates":[13055,315]}},{"type":"Feature","properties":{"name":"Hector","wares":"Agriculture trader","z":118},"geometry":{"type":"Point","coordinates":[13061,305]}},{"type":"Feature","properties":{"name":"Ephram","wares":"Treasure hunter trader","z":119},"geometry":{"type":"Point","coordinates":[13035,320]}},{"type":"Feature","properties":{"name":"Adachi","wares":"Artisan trader","z":118},"geometry":{"type":"Point","coordinates":[13055,315]}},{"type":"Feature","properties":{"name":"Ephram","wares":"Treasure hunter trader","z":119},"geometry":{"type":"Point","coordinates":[13035,320]}},{"type":"Feature","properties":{"name":"Adachi","wares":"Artisan trader","z":118},"geometry":{"type":"Point","coordinates":[13055,315]}},{"type":"Feature","properties":{"name":"Hector","wares":"Agriculture trader","z":118},"geometry":{"type":"Point","coordinates":[13061,305]}},{"type":"Feature","properties":{"name":"Adachi","wares":"Artisan trader","z":137},"geometry":{"type":"Point","coordinates":[16340,72]}},{"type":"Feature","properties":{"name":"Kino","wares":"Clothing trader","z":115},"geometry":{"type":"Point","coordinates":[17265,345]}},{"type":"Feature","properties":{"name":"Loon","wares":"Survival goods trader","z":119},"geometry":{"type":"Point","coordinates":[17250,326]}},{"type":"Feature","properties":{"name":"Lin","wares":"Furniture trader","z":119},"geometry":{"type":"Point","coordinates":[17251,323]}},{"type":"Feature","properties":{"name":"Leo","wares":"Commodities trader","z":119},"geometry":{"type":"Point","coordinates":[17251,323]}},{"type":"Feature","properties":{"name":"Kino","wares":"Clothing trader","z":115},"geometry":{"type":"Point","coordinates":[17265,345]}},{"type":"Feature","properties":{"name":"Loon","wares":"Survival goods trader","z":119},"geometry":{"type":"Point","coordinates":[17250,326]}},{"type":"Feature","properties":{"name":"Lin","wares":"Furniture trader","z":119},"geometry":{"type":"Point","coordinates":[17251,323]}},{"type":"Feature","properties":{"name":"Leo","wares":"Commodities trader","z":119},"geometry":{"type":"Point","coordinates":[17251,323]}},{"type":"Feature","properties":{"name":"Kino","wares":"Clothing trader","z":115},"geometry":{"type":"Point","coordinates":[17265,345]}},{"type":"Feature","properties":{"name":"Loon","wares":"Survival goods trader","z":119},"geometry":{"type":"Point","coordinates":[17250,326]}},{"type":"Feature","properties":{"name":"Lin","wares":"Furniture trader","z":119},"geometry":{"type":"Point","coordinates":[17251,323]}},{"type":"Feature","properties":{"name":"Leo","wares":"Commodities trader","z":119},"geometry":{"type":"Point","coordinates":[17251,323]}},{"type":"Feature","properties":{"name":"Yoskolo","wares":"Agriculture trader","z":112},"geometry":{"type":"Point","coordinates":[-5707,-506]}},{"type":"Feature","properties":{"name":"Filipe","wares":"Furniture trader","z":114},"geometry":{"type":"Point","coordinates":[-4470,-320]}},{"type":"Feature","properties":{"name":"Grit","wares":"Agriculture trader","z":113},"geometry":{"type":"Point","coordinates":[-3010,-192]}},{"type":"Feature","properties":{"name":"Old Eyes","wares":"Building materials trader","z":116},"geometry":{"type":"Point","coordinates":[-1783,-428]}},{"type":"Feature","properties":{"name":"Rote","wares":"Luxuries trader","z":115},"geometry":{"type":"Point","coordinates":[12107,-13]}},{"type":"Feature","properties":{"name":"Ra Bal","wares":"Furniture trader","z":118},"geometry":{"type":"Point","coordinates":[12734,-249]}},{"type":"Feature","properties":{"name":"Vlad","wares":"Furniture trader","z":112},"geometry":{"type":"Point","coordinates":[63,-15]}},{"type":"Feature","properties":{"name":"Lin","wares":"Furniture trader","z":111},"geometry":{"type":"Point","coordinates":[13317,-458]}},{"type":"Feature","properties":{"name":"Vlad","wares":"Furniture trader","z":114},"geometry":{"type":"Point","coordinates":[551,-443]}},{"type":"Feature","properties":{"name":"En Repos","wares":"Artisan trader","z":120},"geometry":{"type":"Point","coordinates":[1703,-361]}},{"type":"Feature","properties":{"name":"Horace","wares":"Luxuries trader","z":111},"geometry":{"type":"Point","coordinates":[16751,-361]}},{"type":"Feature","properties":{"name":"Hector","wares":"Agriculture trader","z":128},"geometry":{"type":"Point","coordinates":[17820,-43]}},{"type":"Feature","properties":{"name":"Wilt","wares":"Furniture trader","z":114},"geometry":{"type":"Point","coordinates":[4808,-431]}},{"type":"Feature","properties":{"name":"Kino","wares":"Clothing trader","z":115},"geometry":{"type":"Point","coordinates":[6952,-363]}},{"type":"Feature","properties":{"name":"Robert","wares":"Furniture trader","z":113},"geometry":{"type":"Point","coordinates":[7726,-513]}},{"type":"Feature","properties":{"name":"Whel","wares":"Building materials trader","z":110},"geometry":{"type":"Point","coordinates":[-9607,-1006]}},{"type":"Feature","properties":{"name":"Oliver","wares":"Clothing trader","z":112},"geometry":{"type":"Point","coordinates":[10246,-443]}},{"type":"Feature","properties":{"name":"Shem","wares":"Survival goods trader","z":112},"geometry":{"type":"Point","coordinates":[-9117,-616]}},{"type":"Feature","properties":{"name":"Yan","wares":"Commodities trader","z":138},"geometry":{"type":"Point","coordinates":[-5070,-886]}},{"type":"Feature","properties":{"name":"Aram","wares":"Commodities trader","z":113},"geometry":{"type":"Point","coordinates":[-2363,-791]}},{"type":"Feature","properties":{"name":"Hector","wares":"Agriculture trader","z":110},"geometry":{"type":"Point","coordinates":[-274,-630]}},{"type":"Feature","properties":{"name":"Oliver","wares":"Clothing trader","z":111},"geometry":{"type":"Point","coordinates":[1174,-800]}},{"type":"Feature","properties":{"name":"Hans","wares":"Agriculture trader","z":115},"geometry":{"type":"Point","coordinates":[1187,-775]}},{"type":"Feature","properties":{"name":"Horace","wares":"Luxuries trader","z":139},"geometry":{"type":"Point","coordinates":[3630,-662]}},{"type":"Feature","properties":{"name":"Bedwyr","wares":"Clothing trader","z":141},"geometry":{"type":"Point","coordinates":[3628,-644]}},{"type":"Feature","properties":{"name":"Horace","wares":"Luxuries trader","z":139},"geometry":{"type":"Point","coordinates":[3630,-662]}},{"type":"Feature","properties":{"name":"Bedwyr","wares":"Clothing trader","z":141},"geometry":{"type":"Point","coordinates":[3628,-644]}},{"type":"Feature","properties":{"name":"Horace","wares":"Luxuries trader","z":139},"geometry":{"type":"Point","coordinates":[3630,-662]}},{"type":"Feature","properties":{"name":"Bedwyr","wares":"Clothing trader","z":141},"geometry":{"type":"Point","coordinates":[3628,-644]}},{"type":"Feature","properties":{"name":"Whel","wares":"Building materials trader","z":111},"geometry":{"type":"Point","coordinates":[4330,-1007]}},{"type":"Feature","properties":{"name":"Samoset","wares":"Commodities trader","z":110},"geometry":{"type":"Point","coordinates":[5122,-985]}},{"type":"Feature","properties":{"name":"Wallace","wares":"Clothing trader","z":113},"geometry":{"type":"Point","coordinates":[6348,-706]}},{"type":"Feature","properties":{"name":"Jasper","wares":"Commodities trader","z":112},"geometry":{"type":"Point","coordinates":[6892,-1002]}},{"type":"Feature","properties":{"name":"Veera","wares":"Luxuries trader","z":114},"geometry":{"type":"Point","coordinates":[10906,-623]}},{"type":"Feature","properties":{"name":"Rigby","wares":"Luxuries trader","z":115},"geometry":{"type":"Point","coordinates":[12284,-715]}},{"type":"Feature","properties":{"name":"Robert","wares":"Furniture trader","z":115},"geometry":{"type":"Point","coordinates":[13994,-592]}},{"type":"Feature","properties":{"name":"Shem","wares":"Survival goods trader","z":116},"geometry":{"type":"Point","coordinates":[15186,-534]}},{"type":"Feature","properties":{"name":"Erik","wares":"Artisan trader","z":117},"geometry":{"type":"Point","coordinates":[15178,-538]}},{"type":"Feature","properties":{"name":"Shem","wares":"Survival goods trader","z":116},"geometry":{"type":"Point","coordinates":[15186,-534]}},{"type":"Feature","properties":{"name":"Erik","wares":"Artisan trader","z":117},"geometry":{"type":"Point","coordinates":[15178,-538]}},{"type":"Feature","properties":{"name":"Shem","wares":"Survival goods trader","z":116},"geometry":{"type":"Point","coordinates":[15186,-534]}},{"type":"Feature","properties":{"name":"Erik","wares":"Artisan trader","z":117},"geometry":{"type":"Point","coordinates":[15178,-538]}},{"type":"Feature","properties":{"name":"Yoskolo","wares":"Agriculture trader","z":113},"geometry":{"type":"Point","coordinates":[15205,-524]}},{"type":"Feature","properties":{"name":"Shem","wares":"Survival goods trader","z":116},"geometry":{"type":"Point","coordinates":[15186,-534]}},{"type":"Feature","properties":{"name":"Erik","wares":"Artisan trader","z":117},"geometry":{"type":"Point","coordinates":[15178,-538]}},{"type":"Feature","properties":{"name":"Leo","wares":"Commodities trader","z":115},"geometry":{"type":"Point","coordinates":[7521,-1087]}},{"type":"Feature","properties":{"name":"Yan","wares":"Commodities trader","z":140},"geometry":{"type":"Point","coordinates":[16159,-541]}},{"type":"Feature","properties":{"name":"Oliver","wares":"Clothing trader","z":114},"geometry":{"type":"Point","coordinates":[8372,-1300]}},{"type":"Feature","properties":{"name":"Yan","wares":"Commodities trader","z":140},"geometry":{"type":"Point","coordinates":[16159,-541]}},{"type":"Feature","properties":{"name":"Leo","wares":"Commodities trader","z":138},"geometry":{"type":"Point","coordinates":[16160,-522]}},{"type":"Feature","properties":{"name":"Yan","wares":"Commodities trader","z":140},"geometry":{"type":"Point","coordinates":[16159,-541]}},{"type":"Feature","properties":{"name":"Leo","wares":"Commodities trader","z":138},"geometry":{"type":"Point","coordinates":[16160,-522]}},{"type":"Feature","properties":{"name":"Wilt","wares":"Furniture trader","z":112},"geometry":{"type":"Point","coordinates":[9378,-1316]}},{"type":"Feature","properties":{"name":"Horace","wares":"Luxuries trader","z":114},"geometry":{"type":"Point","coordinates":[17038,-1011]}},{"type":"Feature","properties":{"name":"Tybal","wares":"Survival goods trader","z":115},"geometry":{"type":"Point","coordinates":[10319,-1218]}},{"type":"Feature","properties":{"name":"Ruslan","wares":"Commodities trader","z":116},"geometry":{"type":"Point","coordinates":[17580,-599]}},{"type":"Feature","properties":{"name":"Stefan","wares":"Commodities trader","z":113},"geometry":{"type":"Point","coordinates":[11313,-1157]}},{"type":"Feature","properties":{"name":"Farhad","wares":"Artisan trader","z":119},"geometry":{"type":"Point","coordinates":[11995,-1338]}},{"type":"Feature","properties":{"name":"Farhad","wares":"Artisan trader","z":119},"geometry":{"type":"Point","coordinates":[11995,-1338]}},{"type":"Feature","properties":{"name":"Zadak","wares":"Artisan trader","z":124},"geometry":{"type":"Point","coordinates":[11982,-1311]}},{"type":"Feature","properties":{"name":"Yan","wares":"Commodities trader","z":114},"geometry":{"type":"Point","coordinates":[-8915,-1220]}},{"type":"Feature","properties":{"name":"Farhad","wares":"Artisan trader","z":119},"geometry":{"type":"Point","coordinates":[11995,-1338]}},{"type":"Feature","properties":{"name":"Samoset","wares":"Commodities trader","z":115},"geometry":{"type":"Point","coordinates":[-5961,-1184]}},{"type":"Feature","properties":{"name":"Hector","wares":"Agriculture trader","z":113},"geometry":{"type":"Point","coordinates":[-5277,-1514]}},{"type":"Feature","properties":{"name":"Yern","wares":"Agriculture trader","z":117},"geometry":{"type":"Point","coordinates":[13180,-1257]}},{"type":"Feature","properties":{"name":"Veera","wares":"Luxuries trader","z":144},"geometry":{"type":"Point","coordinates":[14785,-1440]}},{"type":"Feature","properties":{"name":"Jasper","wares":"Commodities trader","z":113},"geometry":{"type":"Point","coordinates":[-1306,-1215]}},{"type":"Feature","properties":{"name":"Ephram","wares":"Treasure hunter trader","z":123},"geometry":{"type":"Point","coordinates":[15643,-1246]}},{"type":"Feature","properties":{"name":"Ra Bal","wares":"Furniture trader","z":123},"geometry":{"type":"Point","coordinates":[15633,-1251]}},{"type":"Feature","properties":{"name":"Ephram","wares":"Treasure hunter trader","z":123},"geometry":{"type":"Point","coordinates":[15643,-1246]}},{"type":"Feature","properties":{"name":"Ra Bal","wares":"Furniture trader","z":123},"geometry":{"type":"Point","coordinates":[15633,-1251]}},{"type":"Feature","properties":{"name":"Grit","wares":"Agriculture trader","z":111},"geometry":{"type":"Point","coordinates":[16384,-1086]}},{"type":"Feature","properties":{"name":"Sprig","wares":"Survival goods trader","z":115},"geometry":{"type":"Point","coordinates":[-4639,-1963]}},{"type":"Feature","properties":{"name":"Sasha","wares":"Building materials trader","z":111},"geometry":{"type":"Point","coordinates":[1660,-1509]}},{"type":"Feature","properties":{"name":"Filipe","wares":"Furniture trader","z":113},"geometry":{"type":"Point","coordinates":[17717,-1245]}},{"type":"Feature","properties":{"name":"Erik","wares":"Artisan trader","z":119},"geometry":{"type":"Point","coordinates":[-3996,-1874]}},{"type":"Feature","properties":{"name":"Yern","wares":"Agriculture trader","z":110},"geometry":{"type":"Point","coordinates":[-9645,-1638]}},{"type":"Feature","properties":{"name":"Karl","wares":"Survival goods trader","z":110},"geometry":{"type":"Point","coordinates":[-2707,-2005]}},{"type":"Feature","properties":{"name":"Karl","wares":"Survival goods trader","z":110},"geometry":{"type":"Point","coordinates":[-2707,-2005]}},{"type":"Feature","properties":{"name":"Karl","wares":"Survival goods trader","z":110},"geometry":{"type":"Point","coordinates":[-2707,-2005]}},{"type":"Feature","properties":{"name":"Axe","wares":"Survival goods trader","z":111},"geometry":{"type":"Point","coordinates":[-2685,-1996]}},{"type":"Feature","properties":{"name":"Sprig","wares":"Survival goods trader","z":112},"geometry":{"type":"Point","coordinates":[3876,-1489]}},{"type":"Feature","properties":{"name":"Wilt","wares":"Furniture trader","z":114},"geometry":{"type":"Point","coordinates":[3903,-1489]}},{"type":"Feature","properties":{"name":"Timaf","wares":"Treasure hunter trader","z":113},"geometry":{"type":"Point","coordinates":[3903,-1501]}},{"type":"Feature","properties":{"name":"Sprig","wares":"Survival goods trader","z":112},"geometry":{"type":"Point","coordinates":[3876,-1489]}},{"type":"Feature","properties":{"name":"Wilt","wares":"Furniture trader","z":114},"geometry":{"type":"Point","coordinates":[3903,-1489]}},{"type":"Feature","properties":{"name":"Timaf","wares":"Treasure hunter trader","z":113},"geometry":{"type":"Point","coordinates":[3903,-1501]}},{"type":"Feature","properties":{"name":"Sprig","wares":"Survival goods trader","z":112},"geometry":{"type":"Point","coordinates":[3876,-1489]}},{"type":"Feature","properties":{"name":"Wilt","wares":"Furniture trader","z":114},"geometry":{"type":"Point","coordinates":[3903,-1489]}},{"type":"Feature","properties":{"name":"Timaf","wares":"Treasure hunter trader","z":113},"geometry":{"type":"Point","coordinates":[3903,-1501]}},{"type":"Feature","properties":{"name":"Sprig","wares":"Survival goods trader","z":112},"geometry":{"type":"Point","coordinates":[3876,-1489]}},{"type":"Feature","properties":{"name":"Wilt","wares":"Furniture trader","z":114},"geometry":{"type":"Point","coordinates":[3903,-1489]}},{"type":"Feature","properties":{"name":"Timaf","wares":"Treasure hunter trader","z":113},"geometry":{"type":"Point","coordinates":[3903,-1501]}},{"type":"Feature","properties":{"name":"Tybal","wares":"Survival goods trader","z":115},"geometry":{"type":"Point","coordinates":[-1989,-1987]}},{"type":"Feature","properties":{"name":"Aphid","wares":"Artisan trader","z":116},"geometry":{"type":"Point","coordinates":[-404,-1962]}},{"type":"Feature","properties":{"name":"Karl","wares":"Survival goods trader","z":114},"geometry":{"type":"Point","coordinates":[6047,-1386]}},{"type":"Feature","properties":{"name":"Veera","wares":"Luxuries trader","z":113},"geometry":{"type":"Point","coordinates":[4708,-1825]}},{"type":"Feature","properties":{"name":"Farhad","wares":"Artisan trader","z":111},"geometry":{"type":"Point","coordinates":[5549,-2011]}},{"type":"Feature","properties":{"name":"Hubert","wares":"Survival goods trader","z":111},"geometry":{"type":"Point","coordinates":[6709,-1551]}},{"type":"Feature","properties":{"name":"Yan","wares":"Commodities trader","z":116},"geometry":{"type":"Point","coordinates":[7449,-1631]}},{"type":"Feature","properties":{"name":"Samoset","wares":"Commodities trader","z":140},"geometry":{"type":"Point","coordinates":[8808,-1980]}},{"type":"Feature","properties":{"name":"Vlad","wares":"Furniture trader","z":110},"geometry":{"type":"Point","coordinates":[10692,-1796]}},{"type":"Feature","properties":{"name":"Shem","wares":"Survival goods trader","z":116},"geometry":{"type":"Point","coordinates":[-5864,-2124]}},{"type":"Feature","properties":{"name":"Vox Nora","wares":"Treasure hunter trader","z":113},"geometry":{"type":"Point","coordinates":[-5253,-2146]}},{"type":"Feature","properties":{"name":"Floyd","wares":"Artisan trader","z":114},"geometry":{"type":"Point","coordinates":[12473,-1955]}},{"type":"Feature","properties":{"name":"Ruslan","wares":"Commodities trader","z":116},"geometry":{"type":"Point","coordinates":[13704,-1598]}},{"type":"Feature","properties":{"name":"Wilt","wares":"Furniture trader","z":112},"geometry":{"type":"Point","coordinates":[14288,-1795]}},{"type":"Feature","properties":{"name":"Bounder","wares":"Agriculture trader","z":116},"geometry":{"type":"Point","coordinates":[-1089,-2503]}},{"type":"Feature","properties":{"name":"Innis","wares":"Treasure hunter trader","z":113},"geometry":{"type":"Point","coordinates":[16639,-1872]}},{"type":"Feature","properties":{"name":"Loon","wares":"Survival goods trader","z":113},"geometry":{"type":"Point","coordinates":[554,-2123]}},{"type":"Feature","properties":{"name":"Vlad","wares":"Furniture trader","z":140},"geometry":{"type":"Point","coordinates":[4301,-2210]}},{"type":"Feature","properties":{"name":"Noah","wares":"Clothing trader","z":167},"geometry":{"type":"Point","coordinates":[4864,-2534]}},{"type":"Feature","properties":{"name":"Horace","wares":"Luxuries trader","z":163},"geometry":{"type":"Point","coordinates":[4862,-2554]}},{"type":"Feature","properties":{"name":"Noah","wares":"Clothing trader","z":167},"geometry":{"type":"Point","coordinates":[4864,-2534]}},{"type":"Feature","properties":{"name":"Horace","wares":"Luxuries trader","z":163},"geometry":{"type":"Point","coordinates":[4862,-2554]}},{"type":"Feature","properties":{"name":"Noah","wares":"Clothing trader","z":167},"geometry":{"type":"Point","coordinates":[4864,-2534]}},{"type":"Feature","properties":{"name":"Marco","wares":"Luxuries trader","z":117},"geometry":{"type":"Point","coordinates":[6972,-2486]}},{"type":"Feature","properties":{"name":"Hector","wares":"Agriculture trader","z":112},"geometry":{"type":"Point","coordinates":[8154,-2309]}},{"type":"Feature","properties":{"name":"Yern","wares":"Agriculture trader","z":117},"geometry":{"type":"Point","coordinates":[10725,-2409]}},{"type":"Feature","properties":{"name":"Veera","wares":"Luxuries trader","z":119},"geometry":{"type":"Point","coordinates":[11496,-2079]}},{"type":"Feature","properties":{"name":"Wallace","wares":"Clothing trader","z":113},"geometry":{"type":"Point","coordinates":[11496,-2044]}},{"type":"Feature","properties":{"name":"Veera","wares":"Luxuries trader","z":119},"geometry":{"type":"Point","coordinates":[11496,-2079]}},{"type":"Feature","properties":{"name":"Yern","wares":"Agriculture trader","z":112},"geometry":{"type":"Point","coordinates":[11478,-2053]}},{"type":"Feature","properties":{"name":"Veera","wares":"Luxuries trader","z":119},"geometry":{"type":"Point","coordinates":[11496,-2079]}},{"type":"Feature","properties":{"name":"Ra Bal","wares":"Furniture trader","z":116},"geometry":{"type":"Point","coordinates":[13174,-2077]}},{"type":"Feature","properties":{"name":"Innis","wares":"Treasure hunter trader","z":112},"geometry":{"type":"Point","coordinates":[13808,-2200]}},{"type":"Feature","properties":{"name":"Wallace","wares":"Clothing trader","z":114},"geometry":{"type":"Point","coordinates":[9180,-2985]}},{"type":"Feature","properties":{"name":"Old Eyes","wares":"Building materials trader","z":113},"geometry":{"type":"Point","coordinates":[9180,-2977]}},{"type":"Feature","properties":{"name":"Gild","wares":"Agriculture trader","z":112},"geometry":{"type":"Point","coordinates":[14547,-2383]}},{"type":"Feature","properties":{"name":"Bedwyr","wares":"Clothing trader","z":115},"geometry":{"type":"Point","coordinates":[15118,-2058]}},{"type":"Feature","properties":{"name":"Grit","wares":"Agriculture trader","z":111},"geometry":{"type":"Point","coordinates":[-6363,-3063]}},{"type":"Feature","properties":{"name":"Sprig","wares":"Survival goods trader","z":134},"geometry":{"type":"Point","coordinates":[14299,-2915]}},{"type":"Feature","properties":{"name":"Wallace","wares":"Clothing trader","z":138},"geometry":{"type":"Point","coordinates":[14277,-2927]}},{"type":"Feature","properties":{"name":"Sprig","wares":"Survival goods trader","z":134},"geometry":{"type":"Point","coordinates":[14299,-2915]}},{"type":"Feature","properties":{"name":"Wallace","wares":"Clothing trader","z":138},"geometry":{"type":"Point","coordinates":[14277,-2927]}},{"type":"Feature","properties":{"name":"Sprig","wares":"Survival goods trader","z":134},"geometry":{"type":"Point","coordinates":[14299,-2915]}},{"type":"Feature","properties":{"name":"Wallace","wares":"Clothing trader","z":138},"geometry":{"type":"Point","coordinates":[14277,-2927]}},{"type":"Feature","properties":{"name":"Alfonse","wares":"Luxuries trader","z":139},"geometry":{"type":"Point","coordinates":[14270,-2954]}},{"type":"Feature","properties":{"name":"Yern","wares":"Agriculture trader","z":117},"geometry":{"type":"Point","coordinates":[-5422,-2976]}},{"type":"Feature","properties":{"name":"Vlad","wares":"Furniture trader","z":114},"geometry":{"type":"Point","coordinates":[14968,-2906]}},{"type":"Feature","properties":{"name":"Aram","wares":"Commodities trader","z":126},"geometry":{"type":"Point","coordinates":[-4611,-2720]}},{"type":"Feature","properties":{"name":"Gild","wares":"Agriculture trader","z":113},"geometry":{"type":"Point","coordinates":[-2783,-2759]}},{"type":"Feature","properties":{"name":"Mostafa","wares":"Clothing trader","z":119},"geometry":{"type":"Point","coordinates":[-2329,-3581]}},{"type":"Feature","properties":{"name":"Samoset","wares":"Commodities trader","z":119},"geometry":{"type":"Point","coordinates":[-2322,-3580]}},{"type":"Feature","properties":{"name":"Bounder","wares":"Agriculture trader","z":110},"geometry":{"type":"Point","coordinates":[-1680,-3094]}},{"type":"Feature","properties":{"name":"Karl","wares":"Survival goods trader","z":113},"geometry":{"type":"Point","coordinates":[-7305,-3349]}},{"type":"Feature","properties":{"name":"Ra Bal","wares":"Furniture trader","z":118},"geometry":{"type":"Point","coordinates":[-746,-3558]}},{"type":"Feature","properties":{"name":"Yan","wares":"Commodities trader","z":115},"geometry":{"type":"Point","coordinates":[-334,-3041]}},{"type":"Feature","properties":{"name":"McCrae","wares":"Agriculture trader","z":111},"geometry":{"type":"Point","coordinates":[825,-3233]}},{"type":"Feature","properties":{"name":"Bedwyr","wares":"Clothing trader","z":114},"geometry":{"type":"Point","coordinates":[1559,-2577]}},{"type":"Feature","properties":{"name":"Robert","wares":"Furniture trader","z":116},"geometry":{"type":"Point","coordinates":[-5125,-3538]}},{"type":"Feature","properties":{"name":"Tybal","wares":"Survival goods trader","z":130},"geometry":{"type":"Point","coordinates":[-3670,-3095]}},{"type":"Feature","properties":{"name":"Onyx","wares":"Building materials trader","z":130},"geometry":{"type":"Point","coordinates":[-3683,-3111]}},{"type":"Feature","properties":{"name":"Tybal","wares":"Survival goods trader","z":130},"geometry":{"type":"Point","coordinates":[-3670,-3095]}},{"type":"Feature","properties":{"name":"Mostafa","wares":"Clothing trader","z":113},"geometry":{"type":"Point","coordinates":[4626,-3426]}},{"type":"Feature","properties":{"name":"Bedwyr","wares":"Clothing trader","z":119},"geometry":{"type":"Point","coordinates":[7661,-2936]}},{"type":"Feature","properties":{"name":"Yoskolo","wares":"Agriculture trader","z":119},"geometry":{"type":"Point","coordinates":[7659,-2932]}},{"type":"Feature","properties":{"name":"Two Tongue","wares":"Luxuries trader","z":119},"geometry":{"type":"Point","coordinates":[7660,-2932]}},{"type":"Feature","properties":{"name":"Wilding","wares":"Survival goods trader","z":112},"geometry":{"type":"Point","coordinates":[7005,-3148]}},{"type":"Feature","properties":{"name":"Robert","wares":"Furniture trader","z":113},"geometry":{"type":"Point","coordinates":[13649,-3184]}},{"type":"Feature","properties":{"name":"McCrae","wares":"Agriculture trader","z":123},"geometry":{"type":"Point","coordinates":[13064,-3428]}},{"type":"Feature","properties":{"name":"Stretch","wares":"Commodities trader","z":122},"geometry":{"type":"Point","coordinates":[13081,-3428]}},{"type":"Feature","properties":{"name":"McCrae","wares":"Agriculture trader","z":123},"geometry":{"type":"Point","coordinates":[13064,-3428]}},{"type":"Feature","properties":{"name":"Stretch","wares":"Commodities trader","z":122},"geometry":{"type":"Point","coordinates":[13081,-3428]}},{"type":"Feature","properties":{"name":"McCrae","wares":"Agriculture trader","z":123},"geometry":{"type":"Point","coordinates":[13064,-3428]}},{"type":"Feature","properties":{"name":"Stretch","wares":"Commodities trader","z":122},"geometry":{"type":"Point","coordinates":[13081,-3428]}},{"type":"Feature","properties":{"name":"Vox Nora","wares":"Treasure hunter trader","z":118},"geometry":{"type":"Point","coordinates":[-6785,-3729]}},{"type":"Feature","properties":{"name":"Hector","wares":"Agriculture trader","z":111},"geometry":{"type":"Point","coordinates":[-5785,-3611]}},{"type":"Feature","properties":{"name":"Tinker","wares":"Building materials trader","z":111},"geometry":{"type":"Point","coordinates":[-3002,-3643]}},{"type":"Feature","properties":{"name":"Rigby","wares":"Luxuries trader","z":113},"geometry":{"type":"Point","coordinates":[-1375,-3753]}},{"type":"Feature","properties":{"name":"Gild","wares":"Agriculture trader","z":112},"geometry":{"type":"Point","coordinates":[-125,-3763]}},{"type":"Feature","properties":{"name":"Ephram","wares":"Treasure hunter trader","z":122},"geometry":{"type":"Point","coordinates":[1782,-3685]}},{"type":"Feature","properties":{"name":"Sasha","wares":"Building materials trader","z":116},"geometry":{"type":"Point","coordinates":[2146,-3694]}},{"type":"Feature","properties":{"name":"Stretch","wares":"Commodities trader","z":110},"geometry":{"type":"Point","coordinates":[2918,-3805]}},{"type":"Feature","properties":{"name":"Tybal","wares":"Survival goods trader","z":122},"geometry":{"type":"Point","coordinates":[4171,-4081]}},{"type":"Feature","properties":{"name":"Axe","wares":"Survival goods trader","z":113},"geometry":{"type":"Point","coordinates":[7502,-3969]}},{"type":"Feature","properties":{"name":"Loon","wares":"Survival goods trader","z":110},"geometry":{"type":"Point","coordinates":[10193,-4009]}},{"type":"Feature","properties":{"name":"Veera","wares":"Luxuries trader","z":110},"geometry":{"type":"Point","coordinates":[10184,-4026]}},{"type":"Feature","properties":{"name":"Loon","wares":"Survival goods trader","z":110},"geometry":{"type":"Point","coordinates":[10193,-4009]}},{"type":"Feature","properties":{"name":"Veera","wares":"Luxuries trader","z":110},"geometry":{"type":"Point","coordinates":[10184,-4026]}},{"type":"Feature","properties":{"name":"Loon","wares":"Survival goods trader","z":110},"geometry":{"type":"Point","coordinates":[10193,-4009]}},{"type":"Feature","properties":{"name":"Veera","wares":"Luxuries trader","z":110},"geometry":{"type":"Point","coordinates":[10184,-4026]}},{"type":"Feature","properties":{"name":"Aram","wares":"Commodities trader","z":115},"geometry":{"type":"Point","coordinates":[10170,-4020]}},{"type":"Feature","properties":{"name":"Loon","wares":"Survival goods trader","z":110},"geometry":{"type":"Point","coordinates":[10193,-4009]}},{"type":"Feature","properties":{"name":"Veera","wares":"Luxuries trader","z":110},"geometry":{"type":"Point","coordinates":[10184,-4026]}},{"type":"Feature","properties":{"name":"Floyd","wares":"Artisan trader","z":110},"geometry":{"type":"Point","coordinates":[11565,-3941]}},{"type":"Feature","properties":{"name":"Farhad","wares":"Artisan trader","z":111},"geometry":{"type":"Point","coordinates":[11566,-3948]}},{"type":"Feature","properties":{"name":"Hector","wares":"Agriculture trader","z":110},"geometry":{"type":"Point","coordinates":[12283,-3826]}},{"type":"Feature","properties":{"name":"Whel","wares":"Building materials trader","z":114},"geometry":{"type":"Point","coordinates":[8967,-4609]}},{"type":"Feature","properties":{"name":"Aram","wares":"Commodities trader","z":138},"geometry":{"type":"Point","coordinates":[-7256,-4237]}},{"type":"Feature","properties":{"name":"Sasha","wares":"Building materials trader","z":116},"geometry":{"type":"Point","coordinates":[-6322,-4591]}},{"type":"Feature","properties":{"name":"Samoset","wares":"Commodities trader","z":140},"geometry":{"type":"Point","coordinates":[-3385,-4335]}},{"type":"Feature","properties":{"name":"Bedwyr","wares":"Clothing trader","z":139},"geometry":{"type":"Point","coordinates":[-3378,-4345]}},{"type":"Feature","properties":{"name":"Samoset","wares":"Commodities trader","z":140},"geometry":{"type":"Point","coordinates":[-3385,-4335]}},{"type":"Feature","properties":{"name":"Bedwyr","wares":"Clothing trader","z":139},"geometry":{"type":"Point","coordinates":[-3378,-4345]}},{"type":"Feature","properties":{"name":"Samoset","wares":"Commodities trader","z":140},"geometry":{"type":"Point","coordinates":[-3385,-4335]}},{"type":"Feature","properties":{"name":"Bedwyr","wares":"Clothing trader","z":139},"geometry":{"type":"Point","coordinates":[-3378,-4345]}},{"type":"Feature","properties":{"name":"Old Eyes","wares":"Building materials trader","z":113},"geometry":{"type":"Point","coordinates":[-2679,-4165]}},{"type":"Feature","properties":{"name":"Roi","wares":"Treasure hunter trader","z":114},"geometry":{"type":"Point","coordinates":[-1894,-4349]}},{"type":"Feature","properties":{"name":"Stefan","wares":"Commodities trader","z":112},"geometry":{"type":"Point","coordinates":[-2370,-4763]}},{"type":"Feature","properties":{"name":"Hector","wares":"Agriculture trader","z":112},"geometry":{"type":"Point","coordinates":[-780,-4704]}},{"type":"Feature","properties":{"name":"Quill","wares":"Treasure hunter trader","z":111},"geometry":{"type":"Point","coordinates":[4864,-4494]}},{"type":"Feature","properties":{"name":"Humbert","wares":"Building materials trader","z":142},"geometry":{"type":"Point","coordinates":[2019,-4849]}},{"type":"Feature","properties":{"name":"Wilding","wares":"Survival goods trader","z":122},"geometry":{"type":"Point","coordinates":[7641,-4648]}},{"type":"Feature","properties":{"name":"Loon","wares":"Survival goods trader","z":113},"geometry":{"type":"Point","coordinates":[8438,-4911]}},{"type":"Feature","properties":{"name":"Floyd","wares":"Artisan trader","z":115},"geometry":{"type":"Point","coordinates":[10029,-4660]}},{"type":"Feature","properties":{"name":"Mostafa","wares":"Clothing trader","z":113},"geometry":{"type":"Point","coordinates":[10797,-4767]}},{"type":"Feature","properties":{"name":"Miguel","wares":"Building materials trader","z":117},"geometry":{"type":"Point","coordinates":[-6409,-5248]}},{"type":"Feature","properties":{"name":"Grit","wares":"Agriculture trader","z":118},"geometry":{"type":"Point","coordinates":[-1372,-5155]}},{"type":"Feature","properties":{"name":"Yern","wares":"Agriculture trader","z":113},"geometry":{"type":"Point","coordinates":[-370,-5178]}},{"type":"Feature","properties":{"name":"Erik","wares":"Artisan trader","z":129},"geometry":{"type":"Point","coordinates":[755,-5292]}},{"type":"Feature","properties":{"name":"Robert","wares":"Furniture trader","z":130},"geometry":{"type":"Point","coordinates":[749,-5311]}},{"type":"Feature","properties":{"name":"Samoset","wares":"Commodities trader","z":130},"geometry":{"type":"Point","coordinates":[751,-5309]}},{"type":"Feature","properties":{"name":"Wilding","wares":"Survival goods trader","z":130},"geometry":{"type":"Point","coordinates":[752,-5309]}},{"type":"Feature","properties":{"name":"Erik","wares":"Artisan trader","z":129},"geometry":{"type":"Point","coordinates":[755,-5292]}},{"type":"Feature","properties":{"name":"Robert","wares":"Furniture trader","z":130},"geometry":{"type":"Point","coordinates":[749,-5311]}},{"type":"Feature","properties":{"name":"Samoset","wares":"Commodities trader","z":130},"geometry":{"type":"Point","coordinates":[751,-5309]}},{"type":"Feature","properties":{"name":"Wilding","wares":"Survival goods trader","z":130},"geometry":{"type":"Point","coordinates":[752,-5309]}},{"type":"Feature","properties":{"name":"Erik","wares":"Artisan trader","z":129},"geometry":{"type":"Point","coordinates":[755,-5292]}},{"type":"Feature","properties":{"name":"Robert","wares":"Furniture trader","z":130},"geometry":{"type":"Point","coordinates":[749,-5311]}},{"type":"Feature","properties":{"name":"Samoset","wares":"Commodities trader","z":130},"geometry":{"type":"Point","coordinates":[751,-5309]}},{"type":"Feature","properties":{"name":"Wilding","wares":"Survival goods trader","z":130},"geometry":{"type":"Point","coordinates":[752,-5309]}},{"type":"Feature","properties":{"name":"Optal","wares":"Luxuries trader","z":127},"geometry":{"type":"Point","coordinates":[746,-5279]}},{"type":"Feature","properties":{"name":"Erik","wares":"Artisan trader","z":129},"geometry":{"type":"Point","coordinates":[755,-5292]}},{"type":"Feature","properties":{"name":"Robert","wares":"Furniture trader","z":130},"geometry":{"type":"Point","coordinates":[749,-5311]}},{"type":"Feature","properties":{"name":"Samoset","wares":"Commodities trader","z":130},"geometry":{"type":"Point","coordinates":[751,-5309]}},{"type":"Feature","properties":{"name":"Wilding","wares":"Survival goods trader","z":130},"geometry":{"type":"Point","coordinates":[752,-5309]}},{"type":"Feature","properties":{"name":"Whel","wares":"Building materials trader","z":123},"geometry":{"type":"Point","coordinates":[1375,-5430]}},{"type":"Feature","properties":{"name":"Gild","wares":"Agriculture trader","z":125},"geometry":{"type":"Point","coordinates":[1356,-5411]}},{"type":"Feature","properties":{"name":"Hans","wares":"Agriculture trader","z":124},"geometry":{"type":"Point","coordinates":[1369,-5405]}},{"type":"Feature","properties":{"name":"Whel","wares":"Building materials trader","z":123},"geometry":{"type":"Point","coordinates":[1375,-5430]}},{"type":"Feature","properties":{"name":"Gild","wares":"Agriculture trader","z":125},"geometry":{"type":"Point","coordinates":[1356,-5411]}},{"type":"Feature","properties":{"name":"Whel","wares":"Building materials trader","z":123},"geometry":{"type":"Point","coordinates":[1375,-5430]}},{"type":"Feature","properties":{"name":"Gild","wares":"Agriculture trader","z":125},"geometry":{"type":"Point","coordinates":[1356,-5411]}},{"type":"Feature","properties":{"name":"Hans","wares":"Agriculture trader","z":124},"geometry":{"type":"Point","coordinates":[1369,-5405]}},{"type":"Feature","properties":{"name":"Whel","wares":"Building materials trader","z":123},"geometry":{"type":"Point","coordinates":[1375,-5430]}},{"type":"Feature","properties":{"name":"Gild","wares":"Agriculture trader","z":125},"geometry":{"type":"Point","coordinates":[1356,-5411]}},{"type":"Feature","properties":{"name":"Yan","wares":"Commodities trader","z":112},"geometry":{"type":"Point","coordinates":[8312,-5502]}},{"type":"Feature","properties":{"name":"Bounder","wares":"Agriculture trader","z":113},"geometry":{"type":"Point","coordinates":[11744,-5626]}},{"type":"Feature","properties":{"name":"Edel","wares":"Treasure hunter trader","z":141},"geometry":{"type":"Point","coordinates":[11326,-5159]}},{"type":"Feature","properties":{"name":"Hans","wares":"Agriculture trader","z":110},"geometry":{"type":"Point","coordinates":[12324,-5436]}},{"type":"Feature","properties":{"name":"Onyx","wares":"Building materials trader","z":111},"geometry":{"type":"Point","coordinates":[445,-6119]}},{"type":"Feature","properties":{"name":"En Repos","wares":"Artisan trader","z":114},"geometry":{"type":"Point","coordinates":[-6029,-5848]}},{"type":"Feature","properties":{"name":"Yan","wares":"Commodities trader","z":111},"geometry":{"type":"Point","coordinates":[-1585,-5856]}},{"type":"Feature","properties":{"name":"Hector","wares":"Agriculture trader","z":118},"geometry":{"type":"Point","coordinates":[8009,-6054]}},{"type":"Feature","properties":{"name":"Yan","wares":"Commodities trader","z":113},"geometry":{"type":"Point","coordinates":[9149,-5844]}},{"type":"Feature","properties":{"name":"Floyd","wares":"Artisan trader","z":111},"geometry":{"type":"Point","coordinates":[14371,-6051]}},{"type":"Feature","properties":{"name":"En Repos","wares":"Artisan trader","z":111},"geometry":{"type":"Point","coordinates":[14394,-6064]}},{"type":"Feature","properties":{"name":"Floyd","wares":"Artisan trader","z":111},"geometry":{"type":"Point","coordinates":[14371,-6051]}},{"type":"Feature","properties":{"name":"En Repos","wares":"Artisan trader","z":111},"geometry":{"type":"Point","coordinates":[14394,-6064]}},{"type":"Feature","properties":{"name":"Floyd","wares":"Artisan trader","z":111},"geometry":{"type":"Point","coordinates":[14371,-6051]}},{"type":"Feature","properties":{"name":"En Repos","wares":"Artisan trader","z":111},"geometry":{"type":"Point","coordinates":[14394,-6064]}},{"type":"Feature","properties":{"name":"Stretch","wares":"Commodities trader","z":112},"geometry":{"type":"Point","coordinates":[-6041,-6471]}},{"type":"Feature","properties":{"name":"Marco","wares":"Luxuries trader","z":115},"geometry":{"type":"Point","coordinates":[8357,-6585]}},{"type":"Feature","properties":{"name":"Onyx","wares":"Building materials trader","z":113},"geometry":{"type":"Point","coordinates":[10181,-6204]}},{"type":"Feature","properties":{"name":"Sasha","wares":"Building materials trader","z":133},"geometry":{"type":"Point","coordinates":[12017,-6365]}},{"type":"Feature","properties":{"name":"Wallace","wares":"Clothing trader","z":139},"geometry":{"type":"Point","coordinates":[13833,-6482]}},{"type":"Feature","properties":{"name":"Wallace","wares":"Clothing trader","z":139},"geometry":{"type":"Point","coordinates":[13833,-6482]}},{"type":"Feature","properties":{"name":"Whel","wares":"Building materials trader","z":133},"geometry":{"type":"Point","coordinates":[13849,-6458]}},{"type":"Feature","properties":{"name":"Wallace","wares":"Clothing trader","z":139},"geometry":{"type":"Point","coordinates":[13833,-6482]}},{"type":"Feature","properties":{"name":"Ruslan","wares":"Commodities trader","z":111},"geometry":{"type":"Point","coordinates":[-6128,-7158]}},{"type":"Feature","properties":{"name":"Aram","wares":"Commodities trader","z":111},"geometry":{"type":"Point","coordinates":[9793,-6975]}},{"type":"Feature","properties":{"name":"Two Tongue","wares":"Luxuries trader","z":124},"geometry":{"type":"Point","coordinates":[10725,-6816]}},{"type":"Feature","properties":{"name":"Wilding","wares":"Survival goods trader","z":122},"geometry":{"type":"Point","coordinates":[10735,-6831]}},{"type":"Feature","properties":{"name":"Farhad","wares":"Artisan trader","z":124},"geometry":{"type":"Point","coordinates":[10727,-6816]}},{"type":"Feature","properties":{"name":"Oliver","wares":"Clothing trader","z":124},"geometry":{"type":"Point","coordinates":[10727,-6815]}},{"type":"Feature","properties":{"name":"Two Tongue","wares":"Luxuries trader","z":124},"geometry":{"type":"Point","coordinates":[10725,-6816]}},{"type":"Feature","properties":{"name":"Wilding","wares":"Survival goods trader","z":122},"geometry":{"type":"Point","coordinates":[10735,-6831]}},{"type":"Feature","properties":{"name":"Farhad","wares":"Artisan trader","z":124},"geometry":{"type":"Point","coordinates":[10727,-6816]}},{"type":"Feature","properties":{"name":"Two Tongue","wares":"Luxuries trader","z":124},"geometry":{"type":"Point","coordinates":[10725,-6816]}},{"type":"Feature","properties":{"name":"Wilding","wares":"Survival goods trader","z":122},"geometry":{"type":"Point","coordinates":[10735,-6831]}},{"type":"Feature","properties":{"name":"Farhad","wares":"Artisan trader","z":124},"geometry":{"type":"Point","coordinates":[10727,-6816]}},{"type":"Feature","properties":{"name":"Roi","wares":"Treasure hunter trader","z":119},"geometry":{"type":"Point","coordinates":[13316,-6843]}},{"type":"Feature","properties":{"name":"Temper","wares":"Artisan trader","z":116},"geometry":{"type":"Point","coordinates":[14007,-7098]}},{"type":"Feature","properties":{"name":"Stefan","wares":"Commodities trader","z":110},"geometry":{"type":"Point","coordinates":[7948,-7370]}},{"type":"Feature","properties":{"name":"Hector","wares":"Agriculture trader","z":110},"geometry":{"type":"Point","coordinates":[-6657,-7405]}},{"type":"Feature","properties":{"name":"Gild","wares":"Agriculture trader","z":111},"geometry":{"type":"Point","coordinates":[-6662,-7390]}},{"type":"Feature","properties":{"name":"Hector","wares":"Agriculture trader","z":110},"geometry":{"type":"Point","coordinates":[-6657,-7405]}},{"type":"Feature","properties":{"name":"Hector","wares":"Agriculture trader","z":110},"geometry":{"type":"Point","coordinates":[-6657,-7405]}},{"type":"Feature","properties":{"name":"Stefan","wares":"Commodities trader","z":110},"geometry":{"type":"Point","coordinates":[-6671,-7431]}},{"type":"Feature","properties":{"name":"Sasha","wares":"Building materials trader","z":115},"geometry":{"type":"Point","coordinates":[11620,-7213]}},{"type":"Feature","properties":{"name":"Sasha","wares":"Building materials trader","z":115},"geometry":{"type":"Point","coordinates":[11620,-7213]}},{"type":"Feature","properties":{"name":"Horace","wares":"Luxuries trader","z":116},"geometry":{"type":"Point","coordinates":[11623,-7199]}},{"type":"Feature","properties":{"name":"Sasha","wares":"Building materials trader","z":115},"geometry":{"type":"Point","coordinates":[11620,-7213]}},{"type":"Feature","properties":{"name":"Hector","wares":"Agriculture trader","z":114},"geometry":{"type":"Point","coordinates":[12720,-7416]}},{"type":"Feature","properties":{"name":"Horace","wares":"Luxuries trader","z":118},"geometry":{"type":"Point","coordinates":[14469,-7651]}},{"type":"Feature","properties":{"name":"Zadak","wares":"Artisan trader","z":113},"geometry":{"type":"Point","coordinates":[-7205,-7715]}},{"type":"Feature","properties":{"name":"Tybal","wares":"Survival goods trader","z":118},"geometry":{"type":"Point","coordinates":[8044,-8035]}},{"type":"Feature","properties":{"name":"Roi","wares":"Treasure hunter trader","z":119},"geometry":{"type":"Point","coordinates":[8040,-8035]}},{"type":"Feature","properties":{"name":"Stretch","wares":"Commodities trader","z":119},"geometry":{"type":"Point","coordinates":[8040,-8035]}},{"type":"Feature","properties":{"name":"Yan","wares":"Commodities trader","z":117},"geometry":{"type":"Point","coordinates":[8052,-8031]}},{"type":"Feature","properties":{"name":"Tybal","wares":"Survival goods trader","z":118},"geometry":{"type":"Point","coordinates":[8044,-8035]}},{"type":"Feature","properties":{"name":"Roi","wares":"Treasure hunter trader","z":119},"geometry":{"type":"Point","coordinates":[8040,-8035]}},{"type":"Feature","properties":{"name":"Stretch","wares":"Commodities trader","z":119},"geometry":{"type":"Point","coordinates":[8040,-8035]}},{"type":"Feature","properties":{"name":"Yan","wares":"Commodities trader","z":117},"geometry":{"type":"Point","coordinates":[8052,-8031]}},{"type":"Feature","properties":{"name":"Tybal","wares":"Survival goods trader","z":118},"geometry":{"type":"Point","coordinates":[8044,-8035]}},{"type":"Feature","properties":{"name":"Roi","wares":"Treasure hunter trader","z":119},"geometry":{"type":"Point","coordinates":[8040,-8035]}},{"type":"Feature","properties":{"name":"Stretch","wares":"Commodities trader","z":119},"geometry":{"type":"Point","coordinates":[8040,-8035]}},{"type":"Feature","properties":{"name":"Sprig","wares":"Survival goods trader","z":113},"geometry":{"type":"Point","coordinates":[8684,-7909]}},{"type":"Feature","properties":{"name":"Innis","wares":"Treasure hunter trader","z":111},"geometry":{"type":"Point","coordinates":[9797,-7740]}},{"type":"Feature","properties":{"name":"Aram","wares":"Commodities trader","z":110},"geometry":{"type":"Point","coordinates":[9796,-7735]}},{"type":"Feature","properties":{"name":"Rote","wares":"Luxuries trader","z":111},"geometry":{"type":"Point","coordinates":[10471,-8004]}},{"type":"Feature","properties":{"name":"Bounder","wares":"Agriculture trader","z":138},"geometry":{"type":"Point","coordinates":[11163,-8005]}},{"type":"Feature","properties":{"name":"Ruslan","wares":"Commodities trader","z":137},"geometry":{"type":"Point","coordinates":[11148,-8031]}},{"type":"Feature","properties":{"name":"Bounder","wares":"Agriculture trader","z":138},"geometry":{"type":"Point","coordinates":[11163,-8005]}},{"type":"Feature","properties":{"name":"Ruslan","wares":"Commodities trader","z":137},"geometry":{"type":"Point","coordinates":[11148,-8031]}},{"type":"Feature","properties":{"name":"Bounder","wares":"Agriculture trader","z":138},"geometry":{"type":"Point","coordinates":[11163,-8005]}},{"type":"Feature","properties":{"name":"Ruslan","wares":"Commodities trader","z":137},"geometry":{"type":"Point","coordinates":[11148,-8031]}},{"type":"Feature","properties":{"name":"Sprig","wares":"Survival goods trader","z":113},"geometry":{"type":"Point","coordinates":[13629,-7777]}},{"type":"Feature","properties":{"name":"Yoskolo","wares":"Agriculture trader","z":114},"geometry":{"type":"Point","coordinates":[13441,-8641]}},{"type":"Feature","properties":{"name":"Lin","wares":"Furniture trader","z":113},"geometry":{"type":"Point","coordinates":[13467,-8662]}},{"type":"Feature","properties":{"name":"Yoskolo","wares":"Agriculture trader","z":114},"geometry":{"type":"Point","coordinates":[13441,-8641]}},{"type":"Feature","properties":{"name":"Lin","wares":"Furniture trader","z":113},"geometry":{"type":"Point","coordinates":[13467,-8662]}},{"type":"Feature","properties":{"name":"Yoskolo","wares":"Agriculture trader","z":114},"geometry":{"type":"Point","coordinates":[13441,-8641]}},{"type":"Feature","properties":{"name":"Lin","wares":"Furniture trader","z":113},"geometry":{"type":"Point","coordinates":[13467,-8662]}},{"type":"Feature","properties":{"name":"Veera","wares":"Luxuries trader","z":127},"geometry":{"type":"Point","coordinates":[15398,-8071]}},{"type":"Feature","properties":{"name":"Hubert","wares":"Survival goods trader","z":115},"geometry":{"type":"Point","coordinates":[14531,-8332]}},{"type":"Feature","properties":{"name":"Sasha","wares":"Building materials trader","z":116},"geometry":{"type":"Point","coordinates":[15091,-8591]}},{"type":"Feature","properties":{"name":"Mouse","wares":"Furniture trader","z":113},"geometry":{"type":"Point","coordinates":[15743,-8585]}},{"type":"Feature","properties":{"name":"Jasper","wares":"Commodities trader","z":111},"geometry":{"type":"Point","coordinates":[-6586,-8206]}},{"type":"Feature","properties":{"name":"Samoset","wares":"Commodities trader","z":111},"geometry":{"type":"Point","coordinates":[16462,-8391]}},{"type":"Feature","properties":{"name":"Ahanu","wares":"Clothing trader","z":111},"geometry":{"type":"Point","coordinates":[7296,-8413]}},{"type":"Feature","properties":{"name":"Karl","wares":"Survival goods trader","z":111},"geometry":{"type":"Point","coordinates":[8359,-8616]}},{"type":"Feature","properties":{"name":"Whel","wares":"Building materials trader","z":114},"geometry":{"type":"Point","coordinates":[8980,-8611]}},{"type":"Feature","properties":{"name":"Ruslan","wares":"Commodities trader","z":113},"geometry":{"type":"Point","coordinates":[12021,-8446]}},{"type":"Feature","properties":{"name":"Izel","wares":"Clothing trader","z":116},"geometry":{"type":"Point","coordinates":[12614,-8647]}},{"type":"Feature","properties":{"name":"Zadak","wares":"Artisan trader","z":115},"geometry":{"type":"Point","coordinates":[12610,-8671]}},{"type":"Feature","properties":{"name":"Izel","wares":"Clothing trader","z":116},"geometry":{"type":"Point","coordinates":[12614,-8647]}},{"type":"Feature","properties":{"name":"Zadak","wares":"Artisan trader","z":115},"geometry":{"type":"Point","coordinates":[12610,-8671]}},{"type":"Feature","properties":{"name":"Izel","wares":"Clothing trader","z":116},"geometry":{"type":"Point","coordinates":[12614,-8647]}},{"type":"Feature","properties":{"name":"Zadak","wares":"Artisan trader","z":115},"geometry":{"type":"Point","coordinates":[12610,-8671]}},{"type":"Feature","properties":{"name":"Hans","wares":"Agriculture trader","z":113},"geometry":{"type":"Point","coordinates":[12635,-8637]}},{"type":"Feature","properties":{"name":"Izel","wares":"Clothing trader","z":116},"geometry":{"type":"Point","coordinates":[12614,-8647]}},{"type":"Feature","properties":{"name":"Zadak","wares":"Artisan trader","z":115},"geometry":{"type":"Point","coordinates":[12610,-8671]}},{"type":"Feature","properties":{"name":"Aram","wares":"Commodities trader","z":115},"geometry":{"type":"Point","coordinates":[11564,-9050]}},{"type":"Feature","properties":{"name":"Jasper","wares":"Commodities trader","z":122},"geometry":{"type":"Point","coordinates":[14005,-9146]}},{"type":"Feature","properties":{"name":"En Repos","wares":"Artisan trader","z":113},"geometry":{"type":"Point","coordinates":[14594,-9176]}},{"type":"Feature","properties":{"name":"Grit","wares":"Agriculture trader","z":112},"geometry":{"type":"Point","coordinates":[14621,-9153]}},{"type":"Feature","properties":{"name":"En Repos","wares":"Artisan trader","z":113},"geometry":{"type":"Point","coordinates":[14594,-9176]}},{"type":"Feature","properties":{"name":"Grit","wares":"Agriculture trader","z":112},"geometry":{"type":"Point","coordinates":[14621,-9153]}},{"type":"Feature","properties":{"name":"En Repos","wares":"Artisan trader","z":113},"geometry":{"type":"Point","coordinates":[14594,-9176]}},{"type":"Feature","properties":{"name":"Grit","wares":"Agriculture trader","z":112},"geometry":{"type":"Point","coordinates":[14621,-9153]}},{"type":"Feature","properties":{"name":"Humbert","wares":"Building materials trader","z":135},"geometry":{"type":"Point","coordinates":[10961,-9444]}},{"type":"Feature","properties":{"name":"Hans","wares":"Agriculture trader","z":136},"geometry":{"type":"Point","coordinates":[10975,-9439]}},{"type":"Feature","properties":{"name":"Humbert","wares":"Building materials trader","z":135},"geometry":{"type":"Point","coordinates":[10961,-9444]}},{"type":"Feature","properties":{"name":"Humbert","wares":"Building materials trader","z":135},"geometry":{"type":"Point","coordinates":[10961,-9444]}},{"type":"Feature","properties":{"name":"Floyd","wares":"Artisan trader","z":112},"geometry":{"type":"Point","coordinates":[12060,-9401]}},{"type":"Feature","properties":{"name":"Pegalesharro","wares":"Artisan trader","z":113},"geometry":{"type":"Point","coordinates":[12749,-9384]}},{"type":"Feature","properties":{"name":"Whel","wares":"Building materials trader","z":112},"geometry":{"type":"Point","coordinates":[13456,-9577]}},{"type":"Feature","properties":{"name":"Robert","wares":"Furniture trader","z":113},"geometry":{"type":"Point","coordinates":[15544,-9269]}},{"type":"Feature","properties":{"name":"Roi","wares":"Treasure hunter trader","z":113},"geometry":{"type":"Point","coordinates":[16015,-9727]}},{"type":"Feature","properties":{"name":"Noah","wares":"Clothing trader","z":114},"geometry":{"type":"Point","coordinates":[11523,-9847]}},{"type":"Feature","properties":{"name":"Rote","wares":"Luxuries trader","z":117},"geometry":{"type":"Point","coordinates":[12282,-10124]}},{"type":"Feature","properties":{"name":"Wilding","wares":"Survival goods trader","z":112},"geometry":{"type":"Point","coordinates":[12989,-10054]}},{"type":"Feature","properties":{"name":"Whel","wares":"Building materials trader","z":112},"geometry":{"type":"Point","coordinates":[14392,-9777]}},{"type":"Feature","properties":{"name":"Pegalesharro","wares":"Artisan trader","z":112},"geometry":{"type":"Point","coordinates":[14381,-9764]}},{"type":"Feature","properties":{"name":"Ra Bal","wares":"Furniture trader","z":112},"geometry":{"type":"Point","coordinates":[14395,-9765]}},{"type":"Feature","properties":{"name":"Whel","wares":"Building materials trader","z":112},"geometry":{"type":"Point","coordinates":[14392,-9777]}},{"type":"Feature","properties":{"name":"Pegalesharro","wares":"Artisan trader","z":112},"geometry":{"type":"Point","coordinates":[14381,-9764]}},{"type":"Feature","properties":{"name":"Ra Bal","wares":"Furniture trader","z":112},"geometry":{"type":"Point","coordinates":[14395,-9765]}},{"type":"Feature","properties":{"name":"Whel","wares":"Building materials trader","z":112},"geometry":{"type":"Point","coordinates":[14392,-9777]}},{"type":"Feature","properties":{"name":"Pegalesharro","wares":"Artisan trader","z":112},"geometry":{"type":"Point","coordinates":[14381,-9764]}},{"type":"Feature","properties":{"name":"Ra Bal","wares":"Furniture trader","z":112},"geometry":{"type":"Point","coordinates":[14395,-9765]}},{"type":"Feature","properties":{"name":"Whel","wares":"Building materials trader","z":112},"geometry":{"type":"Point","coordinates":[14392,-9777]}},{"type":"Feature","properties":{"name":"Pegalesharro","wares":"Artisan trader","z":112},"geometry":{"type":"Point","coordinates":[14381,-9764]}},{"type":"Feature","properties":{"name":"Ra Bal","wares":"Furniture trader","z":112},"geometry":{"type":"Point","coordinates":[14395,-9765]}},{"type":"Feature","properties":{"name":"Samoset","wares":"Commodities trader","z":111},"geometry":{"type":"Point","coordinates":[-2556,-11187]}},{"type":"Feature","properties":{"name":"Marco","wares":"Luxuries trader","z":112},"geometry":{"type":"Point","coordinates":[-1502,-11164]}},{"type":"Feature","properties":{"name":"Hubert","wares":"Survival goods trader","z":111},"geometry":{"type":"Point","coordinates":[-1959,-10370]}},{"type":"Feature","properties":{"name":"Oliver","wares":"Clothing trader","z":110},"geometry":{"type":"Point","coordinates":[-1981,-10376]}},{"type":"Feature","properties":{"name":"Farhad","wares":"Artisan trader","z":110},"geometry":{"type":"Point","coordinates":[-1982,-10390]}},{"type":"Feature","properties":{"name":"Temper","wares":"Artisan trader","z":112},"geometry":{"type":"Point","coordinates":[-884,-11146]}},{"type":"Feature","properties":{"name":"Hubert","wares":"Survival goods trader","z":111},"geometry":{"type":"Point","coordinates":[-1959,-10370]}},{"type":"Feature","properties":{"name":"Oliver","wares":"Clothing trader","z":110},"geometry":{"type":"Point","coordinates":[-1981,-10376]}},{"type":"Feature","properties":{"name":"Farhad","wares":"Artisan trader","z":110},"geometry":{"type":"Point","coordinates":[-1982,-10390]}},{"type":"Feature","properties":{"name":"Hubert","wares":"Survival goods trader","z":111},"geometry":{"type":"Point","coordinates":[-1959,-10370]}},{"type":"Feature","properties":{"name":"Oliver","wares":"Clothing trader","z":110},"geometry":{"type":"Point","coordinates":[-1981,-10376]}},{"type":"Feature","properties":{"name":"Farhad","wares":"Artisan trader","z":110},"geometry":{"type":"Point","coordinates":[-1982,-10390]}},{"type":"Feature","properties":{"name":"Hubert","wares":"Survival goods trader","z":111},"geometry":{"type":"Point","coordinates":[-1959,-10370]}},{"type":"Feature","properties":{"name":"Oliver","wares":"Clothing trader","z":110},"geometry":{"type":"Point","coordinates":[-1981,-10376]}},{"type":"Feature","properties":{"name":"Farhad","wares":"Artisan trader","z":110},"geometry":{"type":"Point","coordinates":[-1982,-10390]}},{"type":"Feature","properties":{"name":"Aphid","wares":"Artisan trader","z":132},"geometry":{"type":"Point","coordinates":[5762,-10566]}},{"type":"Feature","properties":{"name":"Mostafa","wares":"Clothing trader","z":112},"geometry":{"type":"Point","coordinates":[11435,-10476]}},{"type":"Feature","properties":{"name":"Ruslan","wares":"Commodities trader","z":116},"geometry":{"type":"Point","coordinates":[13804,-10255]}},{"type":"Feature","properties":{"name":"Hubert","wares":"Survival goods trader","z":115},"geometry":{"type":"Point","coordinates":[13797,-10241]}},{"type":"Feature","properties":{"name":"Ruslan","wares":"Commodities trader","z":116},"geometry":{"type":"Point","coordinates":[13804,-10255]}},{"type":"Feature","properties":{"name":"Hubert","wares":"Survival goods trader","z":115},"geometry":{"type":"Point","coordinates":[13797,-10241]}},{"type":"Feature","properties":{"name":"Ruslan","wares":"Commodities trader","z":116},"geometry":{"type":"Point","coordinates":[13804,-10255]}},{"type":"Feature","properties":{"name":"Hubert","wares":"Survival goods trader","z":115},"geometry":{"type":"Point","coordinates":[13797,-10241]}},{"type":"Feature","properties":{"name":"Leo","wares":"Commodities trader","z":112},"geometry":{"type":"Point","coordinates":[14239,-10756]}},{"type":"Feature","properties":{"name":"Grit","wares":"Agriculture trader","z":112},"geometry":{"type":"Point","coordinates":[14830,-10960]}},{"type":"Feature","properties":{"name":"Optal","wares":"Luxuries trader","z":110},"geometry":{"type":"Point","coordinates":[15971,-10812]}},{"type":"Feature","properties":{"name":"Humbert","wares":"Building materials trader","z":114},"geometry":{"type":"Point","coordinates":[-2411,-11766]}},{"type":"Feature","properties":{"name":"Hector","wares":"Agriculture trader","z":113},"geometry":{"type":"Point","coordinates":[-753,-11738]}},{"type":"Feature","properties":{"name":"Tybal","wares":"Survival goods trader","z":114},"geometry":{"type":"Point","coordinates":[5207,-11305]}},{"type":"Feature","properties":{"name":"Miguel","wares":"Building materials trader","z":118},"geometry":{"type":"Point","coordinates":[-1591,-11946]}},{"type":"Feature","properties":{"name":"Gild","wares":"Agriculture trader","z":117},"geometry":{"type":"Point","coordinates":[4741,-12112]}},{"type":"Feature","properties":{"name":"Yan","wares":"Commodities trader","z":111},"geometry":{"type":"Point","coordinates":[5686,-12478]}},{"type":"Feature","properties":{"name":"Aphid","wares":"Artisan trader","z":27},"geometry":{"type":"Point","coordinates":[6362,-16736]}},{"type":"Feature","properties":{"name":"Sprig","wares":"Survival goods trader","z":34},"geometry":{"type":"Point","coordinates":[6332,-16705]}},{"type":"Feature","properties":{"name":"En Repos","wares":"Artisan trader","z":113},"geometry":{"type":"Point","coordinates":[7309,-18679]}},{"type":"Feature","properties":{"name":"Yern","wares":"Agriculture trader","z":111},"geometry":{"type":"Point","coordinates":[8588,-18933]}},{"type":"Feature","properties":{"name":"Adachi","wares":"Artisan trader","z":114},"geometry":{"type":"Point","coordinates":[6724,-19292]}},{"type":"Feature","properties":{"name":"Adachi","wares":"Artisan trader","z":114},"geometry":{"type":"Point","coordinates":[6724,-19292]}},{"type":"Feature","properties":{"name":"Wilding","wares":"Survival goods trader","z":117},"geometry":{"type":"Point","coordinates":[6722,-19260]}},{"type":"Feature","properties":{"name":"Adachi","wares":"Artisan trader","z":114},"geometry":{"type":"Point","coordinates":[6724,-19292]}},{"type":"Feature","properties":{"name":"Quill","wares":"Treasure hunter trader","z":111},"geometry":{"type":"Point","coordinates":[7380,-19447]}},{"type":"Feature","properties":{"name":"Samoset","wares":"Commodities trader","z":115},"geometry":{"type":"Point","coordinates":[6572,-19911]}},{"type":"Feature","properties":{"name":"Mouse","wares":"Furniture trader","z":114},"geometry":{"type":"Point","coordinates":[8115,-19580]}},{"type":"Feature","properties":{"name":"Alfonse","wares":"Luxuries trader","z":118},"geometry":{"type":"Point","coordinates":[7179,-20342]}}]}