{"type":"FeatureCollection","crs":{"Name":"urn:ogc:def:crs:EPSG::3857","type":"name","properties":{"name":"urn:ogc:def:crs:EPSG::3857"}},"name":"translocators","features":[{"type":"Feature","properties":{"depth1":87,"depth2":42,"label":"","tag":""},"geometry":{"type":"LineString","coordinates":[[-4091,6944],[1291,-727]]}},{"type":"Feature","properties":{"depth1":97,"depth2":129,"label":"","tag":""},"geometry":{"type":"LineString","coordinates":[[-9420,-991],[1034,-1074]]}},{"type":"Feature","properties":{"depth1":116,"depth2":129,"label":"","tag":""},"geometry":{"type":"LineString","coordinates":[[4069,-1201],[1069,-1075]]}},{"type":"Feature","properties":{"depth1":106,"depth2":78,"label":"","tag":""},"geometry":{"type":"LineString","coordinates":[[1035,-3234],[-2036,-10535]]}},{"type":"Feature","properties":{"depth1":123,"depth2":129,"label":"","tag":""},"geometry":{"type":"LineString","coordinates":[[-1908,-10294],[1051,-1092]]}}]}